OBJECT_NAME,OBJECT_ID,EPOCH,MEAN_MOTION,ECCENTRICITY,INCLINATION,RA_OF_ASC_NODE,ARG_OF_PERICENTER,MEAN_ANOMALY,EPHEMERIS_TYPE,CLASSIFICATION_TYPE,NORAD_CAT_ID,ELEMENT_SET_NO,REV_AT_EPOCH,BSTAR,MEAN_MOTION_DOT,MEAN_MOTION_DDOT
BEIDOU-3S IGSO-1S (C31),2015-019A,2026-07-02T19:12:21.705408,1.00680073,.00768606,49.1798,295.2769,219.1125,144.2493,0,U,40549,999,4123,0,-.19E-5,0
GPS BIIF-10 (PRN 08),2015-033A,2026-07-16T15:19:12.156096,2.00554636,.0115376,53.9601,265.8709,30.2943,330.4469,0,U,40730,999,8058,0,-.18E-6,0
BEIDOU-3S M2S (C58),2015-037A,2026-07-16T07:38:54.127392,1.86231871,.0009458,54.8432,301.0434,256.6613,103.2681,0,U,40748,999,7466,0,-.74E-6,0
BEIDOU-3S M1S (C57),2015-037B,2026-07-15T23:39:18.287712,1.86254817,.000274,54.8399,301.0417,63.1715,296.8904,0,U,40749,999,7466,0,-.72E-6,0
GSAT0206 (GALILEO 10),2015-045B,2026-07-14T10:33:44.988192,1.70473502,.00021594,54.9389,220.8513,328.3003,31.7529,0,U,40890,999,6750,0,.65E-6,0
BEIDOU-3S IGSO-2S (C56),2015-053A,2026-07-16T03:29:47.712768,1.00252633,.00662631,49.1773,258.4358,193.1701,348.1230,0,U,40938,999,3964,0,-.96E-6,0
GPS BIIF-11 (PRN 10),2015-062A,2026-07-16T04:40:05.677824,2.00566952,.0112905,56.9790,29.6945,230.8679,128.1635,0,U,41019,999,7841,0,-.74E-6,0
GSAT-15 (GAGAN/PRN 139),2015-065A,2026-07-16T21:06:51.452352,1.00272698,.000346,0.1136,263.9593,174.5124,266.4447,0,U,41028,999,3909,0,-.268E-5,0
GSAT0209 (GALILEO 12),2015-079A,2026-07-14T00:31:25.953024,1.70473559,.00047936,55.8424,100.5256,355.0835,4.9328,0,U,41174,999,6523,0,-.29E-6,0
GSAT0208 (GALILEO 11),2015-079B,2026-07-14T19:53:24.793152,1.70473443,.00043604,55.8401,100.5005,357.6027,2.4215,0,U,41175,999,6566,0,-.28E-6,0
IRNSS-1E,2016-003A,2026-07-13T01:01:03.714240,1.00278688,.00189772,33.2887,59.3748,176.6620,181.8769,0,U,41241,999,3833,0,-.321E-5,0
GPS BIIF-12 (PRN 32),2016-007A,2026-07-16T06:51:33.882048,2.00575348,.0096624,55.5417,88.3056,247.6025,111.4248,0,U,41328,999,7642,0,-.24E-6,0
COSMOS 2514 (751),2016-008A,2026-07-16T09:06:12.503232,2.13102544,.0012349,65.0024,312.0048,201.2981,158.6681,0,U,41330,999,8124,0,-.63E-6,0
BEIDOU-2 IGSO-6 (C13),2016-021A,2026-06-26T02:38:38.671584,1.00258926,.0057558,60.2385,37.9495,231.0163,137.2672,0,U,41434,999,3757,0,-.145E-5,0
IRNSS-1G,2016-027A,2026-07-16T13:56:19.092192,1.00270128,.0005963,5.2661,96.7944,11.7461,164.6245,0,U,41469,999,3747,0,-.347E-5,0
GSAT0211 (GALILEO 14),2016-030A,2026-07-14T08:46:46.904160,1.70473656,.00033839,55.0898,220.9468,318.5013,41.5401,0,U,41549,999,6313,0,.66E-6,0
GSAT0210 (GALILEO 13),2016-030B,2026-07-14T14:57:12.475584,1.70473871,.0004719,55.0888,220.9379,246.1345,113.8809,0,U,41550,999,6313,0,.64E-6,0
BEIDOU-2 G7 (C03),2016-037A,2026-07-16T20:41:25.300896,1.00272578,.00059,1.7916,69.5067,0.0042,286.0840,0,U,41586,999,718,0,-.364E-5,0
EUTELSAT 117 WEST B (WAAS/PRN 131),2016-038B,2026-07-16T14:28:31.004832,1.00269376,.0000095,0.0096,205.9342,230.7902,317.8509,0,U,41589,999,3695,0,-.22E-6,0
GSAT0207 (GALILEO 15),2016-069A,2026-07-15T11:43:03.764064,1.70473446,.00045678,55.5148,100.3030,339.1852,20.8267,0,U,41859,999,5988,0,-.27E-6,0
GSAT0212 (GALILEO 16),2016-069B,2026-07-14T18:07:16.719168,1.70473579,.00043837,55.5126,100.3182,15.0007,345.0382,0,U,41860,999,6012,0,-.28E-6,0
GSAT0213 (GALILEO 17),2016-069C,2026-07-13T08:41:54.440160,1.70474037,.00041264,55.5134,100.3648,318.6741,41.3115,0,U,41861,999,5996,0,-.31E-6,0
GSAT0214 (GALILEO 18),2016-069D,2026-07-14T02:17:14.544672,1.70473685,.00032961,55.5122,100.3371,333.1197,26.8847,0,U,41862,999,6010,0,-.3E-6,0
SES-15 (WAAS/PRN 133),2017-026A,2026-07-16T14:25:08.827968,1.00268575,.000034,0.0270,328.2107,135.1509,278.1930,0,U,42709,999,772,0,.49E-6,0
QZS-2 (QZSS/PRN 194),2017-028A,2026-07-16T11:21:58.087008,1.00276421,.0757359,39.3848,242.7220,269.6144,94.9037,0,U,42738,999,792,0,-.143E-5,0
QZS-3 (QZSS/PRN 199),2017-048A,2026-07-16T19:03:27.273024,1.00271463,.0002589,0.0630,213.0832,273.4997,220.9418,0,U,42917,999,3255,0,-.358E-5,0
COSMOS 2522 (752),2017-055A,2026-07-15T06:40:55.768800,2.13101758,.00109349,64.0806,190.9281,240.7773,119.1159,0,U,42939,999,6857,0,.55E-6,0
QZS-4 (QZSS/PRN 195),2017-062A,2026-07-16T17:26:43.443744,1.00289937,.0747247,40.0906,343.1084,268.6115,83.6926,0,U,42965,999,3210,0,-.353E-5,0
BEIDOU-3 M1 (C19),2017-069A,2026-07-15T01:18:53.436096,1.86230827,.00092673,56.7163,62.1672,328.5335,31.4861,0,U,43001,999,5912,0,-.4E-6,0
BEIDOU-3 M2 (C20),2017-069B,2026-07-14T23:50:47.813280,1.86230602,.0008281,56.7151,62.2055,358.4251,1.6473,0,U,43002,999,5911,0,-.4E-6,0
GSAT0215 (GALILEO 19),2017-079A,2026-07-15T04:06:51.886368,1.70474281,.00038313,55.0676,220.7362,269.4103,90.6058,0,U,43055,999,5346,0,.59E-6,0
